[
  {
    "OBJECT_NAME": "STARLINK-2042",
    "OBJECT_ID": "2021-012AQ",
    "EPOCH": "2024-05-21T04:44:16.634400",
    "MEAN_MOTION": 15.0641235,
    "ECCENTRICITY": 0.0001645,
    "INCLINATION": 53.0522,
    "RA_OF_ASC_NODE": 143.2097,
    "ARG_OF_PERICENTER": 86.6393,
    "MEAN_ANOMALY": 273.4784,
    "EPHEMERIS_TYPE": 0,
    "CLASSIFICATION_TYPE": "U",
    "NORAD_CAT_ID": 47658,
    "ELEMENT_SET_NO": 999,
    "REV_AT_EPOCH": 18037,
    "BSTAR": 0.000427,
    "MEAN_MOTION_DOT": 6.086e-5,
    "MEAN_MOTION_DDOT": 0
  },
  {
    "OBJECT_NAME": "STARLINK-2043",
    "OBJECT_ID": "2021-012AR",
    "EPOCH": "2024-05-20T21:23:46.851936",
    "MEAN_MOTION": 15.06391078,
    "ECCENTRICITY": 0.0001647,
    "INCLINATION": 53.0544,
    "RA_OF_ASC_NODE": 24.5879,
    "ARG_OF_PERICENTER": 83.6847,
    "MEAN_ANOMALY": 276.4329,
    "EPHEMERIS_TYPE": 0,
    "CLASSIFICATION_TYPE": "U",
    "NORAD_CAT_ID": 47659,
    "ELEMENT_SET_NO": 999,
    "REV_AT_EPOCH": 18199,
    "BSTAR": 0.00010969,
    "MEAN_MOTION_DOT": 1.352e-5,
    "MEAN_MOTION_DDOT": 0
  },
  {
    "OBJECT_NAME": "STARLINK-2044",
    "OBJECT_ID": "2021-012AS",
    "EPOCH": "2024-05-20T20:16:12.880992",
    "MEAN_MOTION": 15.06391148,
    "ECCENTRICITY": 0.0001993,
    "INCLINATION": 53.0567,
    "RA_OF_ASC_NODE": 15.4223,
    "ARG_OF_PERICENTER": 123.1287,
    "MEAN_ANOMALY": 236.9894,
    "EPHEMERIS_TYPE": 0,
    "CLASSIFICATION_TYPE": "U",
    "NORAD_CAT_ID": 47660,
    "ELEMENT_SET_NO": 999,
    "REV_AT_EPOCH": 18212,
    "BSTAR": 0.00099562,
    "MEAN_MOTION_DOT": 0.00014576,
    "MEAN_MOTION_DDOT": 0
  },
  {
    "OBJECT_NAME": "STARLINK-2051",
    "OBJECT_ID": "2021-012AT",
    "EPOCH": "2024-05-20T08:47:23.738208",
    "MEAN_MOTION": 15.06387869,
    "ECCENTRICITY": 0.0001149,
    "INCLINATION": 53.051,
    "RA_OF_ASC_NODE": 126.9433,
    "ARG_OF_PERICENTER": 100.8991,
    "MEAN_ANOMALY": 259.2127,
    "EPHEMERIS_TYPE": 0,
    "CLASSIFICATION_TYPE": "U",
    "NORAD_CAT_ID": 47661,
    "ELEMENT_SET_NO": 999,
    "REV_AT_EPOCH": 18102,
    "BSTAR": -8.2162e-5,
    "MEAN_MOTION_DOT": -1.504e-5,
    "MEAN_MOTION_DDOT": 0
  },
  {
    "OBJECT_NAME": "STARLINK-2052",
    "OBJECT_ID": "2021-012AU",
    "EPOCH": "2024-05-21T05:01:30.854496",
    "MEAN_MOTION": 15.06395176,
    "ECCENTRICITY": 0.0001564,
    "INCLINATION": 53.0534,
    "RA_OF_ASC_NODE": 123.1622,
    "ARG_OF_PERICENTER": 77.9354,
    "MEAN_ANOMALY": 282.181,
    "EPHEMERIS_TYPE": 0,
    "CLASSIFICATION_TYPE": "U",
    "NORAD_CAT_ID": 47662,
    "ELEMENT_SET_NO": 999,
    "REV_AT_EPOCH": 18065,
    "BSTAR": 0.00015757,
    "MEAN_MOTION_DOT": 2.066e-5,
    "MEAN_MOTION_DDOT": 0
  },
  {
    "OBJECT_NAME": "STARLINK-2053",
    "OBJECT_ID": "2021-012AV",
    "EPOCH": "2024-05-21T03:22:07.343328",
    "MEAN_MOTION": 15.06378915,
    "ECCENTRICITY": 0.0001778,
    "INCLINATION": 53.0573,
    "RA_OF_ASC_NODE": 43.7881,
    "ARG_OF_PERICENTER": 97.6416,
    "MEAN_ANOMALY": 262.4775,
    "EPHEMERIS_TYPE": 0,
    "CLASSIFICATION_TYPE": "U",
    "NORAD_CAT_ID": 47663,
    "ELEMENT_SET_NO": 999,
    "REV_AT_EPOCH": 18175,
    "BSTAR": 0.0003786,
    "MEAN_MOTION_DOT": 5.359e-5,
    "MEAN_MOTION_DDOT": 0
  },
  {
    "OBJECT_NAME": "STARLINK-2054",
    "OBJECT_ID": "2021-012AW",
    "EPOCH": "2024-05-20T06:45:18.991584",
    "MEAN_MOTION": 15.0638888,
    "ECCENTRICITY": 0.0001401,
    "INCLINATION": 53.0517,
    "RA_OF_ASC_NODE": 127.3249,
    "ARG_OF_PERICENTER": 86.6258,
    "MEAN_ANOMALY": 273.4891,
    "EPHEMERIS_TYPE": 0,
    "CLASSIFICATION_TYPE": "U",
    "NORAD_CAT_ID": 47664,
    "ELEMENT_SET_NO": 999,
    "REV_AT_EPOCH": 18051,
    "BSTAR": 1.7833e-6,
    "MEAN_MOTION_DOT": -2.55e-6,
    "MEAN_MOTION_DDOT": 0
  },
  {
    "OBJECT_NAME": "STARLINK-2056",
    "OBJECT_ID": "2021-012AX",
    "EPOCH": "2024-05-21T04:34:19.882560",
    "MEAN_MOTION": 15.0643557,
    "ECCENTRICITY": 0.0001351,
    "INCLINATION": 53.0523,
    "RA_OF_ASC_NODE": 118.29,
    "ARG_OF_PERICENTER": 93.3317,
    "MEAN_ANOMALY": 266.7827,
    "EPHEMERIS_TYPE": 0,
    "CLASSIFICATION_TYPE": "U",
    "NORAD_CAT_ID": 47665,
    "ELEMENT_SET_NO": 999,
    "REV_AT_EPOCH": 18071,
    "BSTAR": 0.00088506,
    "MEAN_MOTION_DOT": 0.00012939,
    "MEAN_MOTION_DDOT": 0
  },
  {
    "OBJECT_NAME": "STARLINK-2057",
    "OBJECT_ID": "2021-012AY",
    "EPOCH": "2024-05-21T04:29:06.376704",
    "MEAN_MOTION": 15.06397129,
    "ECCENTRICITY": 0.0001472,
    "INCLINATION": 53.0524,
    "RA_OF_ASC_NODE": 118.6169,
    "ARG_OF_PERICENTER": 92.1203,
    "MEAN_ANOMALY": 267.9954,
    "EPHEMERIS_TYPE": 0,
    "CLASSIFICATION_TYPE": "U",
    "NORAD_CAT_ID": 47666,
    "ELEMENT_SET_NO": 999,
    "REV_AT_EPOCH": 18071,
    "BSTAR": 0.00024856,
    "MEAN_MOTION_DOT": 3.422e-5,
    "MEAN_MOTION_DDOT": 0
  },
  {
    "OBJECT_NAME": "STARLINK-2058",
    "OBJECT_ID": "2021-012AZ",
    "EPOCH": "2024-05-21T04:12:26.091072",
    "MEAN_MOTION": 15.06397883,
    "ECCENTRICITY": 0.0001296,
    "INCLINATION": 53.0524,
    "RA_OF_ASC_NODE": 143.3104,
    "ARG_OF_PERICENTER": 95.5756,
    "MEAN_ANOMALY": 264.538,
    "EPHEMERIS_TYPE": 0,
    "CLASSIFICATION_TYPE": "U",
    "NORAD_CAT_ID": 47667,
    "ELEMENT_SET_NO": 999,
    "REV_AT_EPOCH": 18036,
    "BSTAR": 3.4951e-5,
    "MEAN_MOTION_DOT": 2.39e-6,
    "MEAN_MOTION_DDOT": 0
  },
  {
    "OBJECT_NAME": "STARLINK-2059",
    "OBJECT_ID": "2021-012BA",
    "EPOCH": "2024-05-20T08:31:29.635968",
    "MEAN_MOTION": 15.06400237,
    "ECCENTRICITY": 0.0001317,
    "INCLINATION": 53.0517,
    "RA_OF_ASC_NODE": 126.9928,
    "ARG_OF_PERICENTER": 85.959,
    "MEAN_ANOMALY": 274.1549,
    "EPHEMERIS_TYPE": 0,
    "CLASSIFICATION_TYPE": "U",
    "NORAD_CAT_ID": 47668,
    "ELEMENT_SET_NO": 999,
    "REV_AT_EPOCH": 18104,
    "BSTAR": 0.00045469,
    "MEAN_MOTION_DOT": 6.498e-5,
    "MEAN_MOTION_DDOT": 0
  },
  {
    "OBJECT_NAME": "STARLINK-2062",
    "OBJECT_ID": "2021-012BC",
    "EPOCH": "2024-05-20T08:52:42.207744",
    "MEAN_MOTION": 15.06384779,
    "ECCENTRICITY": 0.0001482,
    "INCLINATION": 53.0525,
    "RA_OF_ASC_NODE": 126.9263,
    "ARG_OF_PERICENTER": 102.0169,
    "MEAN_ANOMALY": 258.0986,
    "EPHEMERIS_TYPE": 0,
    "CLASSIFICATION_TYPE": "U",
    "NORAD_CAT_ID": 47670,
    "ELEMENT_SET_NO": 999,
    "REV_AT_EPOCH": 18103,
    "BSTAR": -2.5491e-5,
    "MEAN_MOTION_DOT": -6.61e-6,
    "MEAN_MOTION_DDOT": 0
  },
  {
    "OBJECT_NAME": "STARLINK-2064",
    "OBJECT_ID": "2021-012BD",
    "EPOCH": "2024-05-21T05:08:10.868352",
    "MEAN_MOTION": 15.06399277,
    "ECCENTRICITY": 0.0001341,
    "INCLINATION": 53.0534,
    "RA_OF_ASC_NODE": 123.1413,
    "ARG_OF_PERICENTER": 79.2384,
    "MEAN_ANOMALY": 280.8756,
    "EPHEMERIS_TYPE": 0,
    "CLASSIFICATION_TYPE": "U",
    "NORAD_CAT_ID": 47671,
    "ELEMENT_SET_NO": 999,
    "REV_AT_EPOCH": 18065,
    "BSTAR": 0.00012663,
    "MEAN_MOTION_DOT": 1.605e-5,
    "MEAN_MOTION_DDOT": 0
  },
  {
    "OBJECT_NAME": "STARLINK-2065",
    "OBJECT_ID": "2021-012BE",
    "EPOCH": "2024-05-20T07:55:39.047520",
    "MEAN_MOTION": 15.06393105,
    "ECCENTRICITY": 0.0001211,
    "INCLINATION": 53.0521,
    "RA_OF_ASC_NODE": 117.1025,
    "ARG_OF_PERICENTER": 81.0163,
    "MEAN_ANOMALY": 279.0963,
    "EPHEMERIS_TYPE": 0,
    "CLASSIFICATION_TYPE": "U",
    "NORAD_CAT_ID": 47672,
    "ELEMENT_SET_NO": 999,
    "REV_AT_EPOCH": 18115,
    "BSTAR": 0.00029244,
    "MEAN_MOTION_DOT": 4.076e-5,
    "MEAN_MOTION_DDOT": 0
  }
]