STARLINK-2042           
1 47658U 21012AQ  24142.19741475  .00006086  00000+0  42700-3 0  9992
2 47658  53.0522 143.2097 0001645  86.6393 273.4784 15.06412350180377
STARLINK-2043           
1 47659U 21012AR  24141.89151449  .00001352  00000+0  10969-3 0  9998
2 47659  53.0544  24.5879 0001647  83.6847 276.4329 15.06391078181994
STARLINK-2044           
1 47660U 21012AS  24141.84459353  .00014576  00000+0  99562-3 0  9998
2 47660  53.0567  15.4223 0001993 123.1287 236.9894 15.06391148182127
STARLINK-2051           
1 47661U 21012AT  24141.36624697 -.00001504  00000+0 -82162-4 0  9999
2 47661  53.0510 126.9433 0001149 100.8991 259.2127 15.06387869181024
STARLINK-2052           
1 47662U 21012AU  24142.20938489  .00002066  00000+0  15757-3 0  9998
2 47662  53.0534 123.1622 0001564  77.9354 282.1810 15.06395176180650
STARLINK-2053           
1 47663U 21012AV  24142.14036277  .00005359  00000+0  37860-3 0  9993
2 47663  53.0573  43.7881 0001778  97.6416 262.4775 15.06378915181758
STARLINK-2054           
1 47664U 21012AW  24141.28146981 -.00000255  00000+0  17833-5 0  9993
2 47664  53.0517 127.3249 0001401  86.6258 273.4891 15.06388880180515
STARLINK-2056           
1 47665U 21012AX  24142.19050790  .00012939  00000+0  88506-3 0  9991
2 47665  53.0523 118.2900 0001351  93.3317 266.7827 15.06435570180716
STARLINK-2057           
1 47666U 21012AY  24142.18687936  .00003422  00000+0  24856-3 0  9994
2 47666  53.0524 118.6169 0001472  92.1203 267.9954 15.06397129180715
STARLINK-2058           
1 47667U 21012AZ  24142.17530198  .00000239  00000+0  34951-4 0  9992
2 47667  53.0524 143.3104 0001296  95.5756 264.5380 15.06397883180368
STARLINK-2059           
1 47668U 21012BA  24141.35520412  .00006498  00000+0  45469-3 0  9998
2 47668  53.0517 126.9928 0001317  85.9590 274.1549 15.06400237181043
STARLINK-2062           
1 47670U 21012BC  24141.36993296 -.00000661  00000+0 -25491-4 0  9998
2 47670  53.0525 126.9263 0001482 102.0169 258.0986 15.06384779181030
STARLINK-2064           
1 47671U 21012BD  24142.21401468  .00001605  00000+0  12663-3 0  9992
2 47671  53.0534 123.1413 0001341  79.2384 280.8756 15.06399277180659
STARLINK-2065           
1 47672U 21012BE  24141.33031305  .00004076  00000+0  29244-3 0  9992
2 47672  53.0521 117.1025 0001211  81.0163 279.0963 15.06393105181150
